NORAD_CAT_ID,OBJECT_NAME,OBJECT_TYPE,EPOCH,MEAN_MOTION,ECCENTRICITY,INCLINATION,RA_OF_ASC_NODE,ARG_OF_PERICENTER,MEAN_ANOMALY,BSTAR,MEAN_MOTION_DOT,MEAN_MOTION_DDOT,TLE_LINE0,TLE_LINE1,TLE_LINE2,SEMIMAJOR_AXIS,PERIOD,APOGEE,PERIGEE,DECAYED
53790.0,STARLINK-4734,PAYLOAD,2023-03-28 11:10:38,15.08850682,0.0001178,53.2176,69.8475,96.2356,263.877,0.00021631,3.157e-05,0.0,0 STARLINK-4734,1 53790U 22111T   23087.46572086  .00003157  00000-0  21631-3 0  9991,2 53790  53.2176  69.8475 0001178  96.2356 263.8770 15.08850682 31074,6917.848,95.437,540.528,538.898,0.0
53790.0,STARLINK-4734,PAYLOAD,2023-03-28 15:56:48,15.08832683,0.0001691,53.2187,68.9563,85.4207,274.6978,-7.1384e-05,-1.424e-05,0.0,0 STARLINK-4734,1 53790U 22111T   23087.66445259 -.00001424  00000-0 -71384-4 0  9992,2 53790  53.2187  68.9563 0001691  85.4207 274.6978 15.08832683 31104,6917.903,95.438,540.938,538.598,0.0
53790.0,STARLINK-4734,PAYLOAD,2023-03-29 06:15:16,15.08849228,9.57e-05,53.2178,66.2802,60.0106,300.0981,0.00028922,4.319e-05,0.0,0 STARLINK-4734,1 53790U 22111T   23088.26060532  .00004319  00000-0  28922-3 0  9999,2 53790  53.2178  66.2802 0000957  60.0106 300.0981 15.08849228 30382,6917.852,95.437,540.379,539.055,0.0
53790.0,STARLINK-4734,PAYLOAD,2023-03-29 07:50:39,15.08853044,0.000115,53.2176,65.982,81.3002,278.8121,0.00038261,5.809e-05,0.0,0 STARLINK-4734,1 53790U 22111T   23088.32684396  .00005809  00000-0  38261-3 0  9998,2 53790  53.2176  65.9820 0001150  81.3002 278.8121 15.08853044 31204,6917.841,95.437,540.501,538.91,0.0
53790.0,STARLINK-4734,PAYLOAD,2023-03-29 15:47:35,15.08846243,0.0001223,53.218,64.4963,84.3551,275.758,0.00026256,3.894e-05,0.0,0 STARLINK-4734,1 53790U 22111T   23088.65804652  .00003894  00000-0  26256-3 0  9996,2 53790  53.2180  64.4963 0001223  84.3551 275.7580 15.08846243 31257,6917.861,95.437,540.572,538.88,0.0
53790.0,STARLINK-4734,PAYLOAD,2023-03-30 02:55:17,15.08845228,0.0001475,53.2179,62.4131,90.9236,269.1925,0.0002196,3.209e-05,0.0,0 STARLINK-4734,1 53790U 22111T   23089.12172736  .00003209  00000-0  21960-3 0  9997,2 53790  53.2179  62.4131 0001475  90.9236 269.1925 15.08845228 30512,6917.864,95.437,540.75,538.709,0.0
53790.0,STARLINK-4734,PAYLOAD,2023-03-30 06:06:03,15.08848805,9.44e-05,53.2181,61.8193,91.1823,268.9277,0.00028521,4.255e-05,0.0,0 STARLINK-4734,1 53790U 22111T   23089.25420440  .00004255  00000-0  28521-3 0  9991,2 53790  53.2181  61.8193 0000944  91.1823 268.9277 15.08848805 31344,6917.853,95.437,540.372,539.065,0.0
53790.0,STARLINK-4734,PAYLOAD,2023-03-31 04:21:27,15.08850443,0.0001048,53.2181,57.6573,95.4513,264.6599,0.00038443,5.837e-05,0.0,0 STARLINK-4734,1 53790U 22111T   23090.18156584  .00005837  00000-0  38443-3 0  9991,2 53790  53.2181  57.6573 0001048  95.4513 264.6599 15.08850443 30674,6917.848,95.437,540.438,538.988,0.0
53790.0,STARLINK-4734,PAYLOAD,2023-04-01 05:47:38,15.08840232,0.0001016,53.2179,52.8995,81.5776,278.5332,0.00073002,0.00011349,0.0,0 STARLINK-4734,1 53790U 22111T   23091.24141249  .00011349  00000-0  73002-3 0  9996,2 53790  53.2179  52.8995 0001016  81.5776 278.5332 15.08840232 30830,6917.88,95.438,540.448,539.042,0.0
53790.0,STARLINK-4734,PAYLOAD,2023-04-01 07:23:01,15.08845847,9.99e-05,53.2177,52.6017,79.8317,280.2787,0.00069241,0.00010751,0.0,0 STARLINK-4734,1 53790U 22111T   23091.30765088  .00010751  00000-0  69241-3 0  9992,2 53790  53.2177  52.6017 0000999  79.8317 280.2787 15.08845847 31653,6917.863,95.437,540.419,539.036,0.0
53790.0,STARLINK-4734,PAYLOAD,2023-04-02 07:13:47,15.08869871,8.86e-05,53.2174,48.1416,86.0043,274.105,0.0016053,0.00025374,0.0,0 STARLINK-4734,1 53790U 22111T   23092.30124977  .00025374  00000-0  16053-2 0  9998,2 53790  53.2174  48.1416 0000886  86.0043 274.1050 15.08869871 30998,6917.789,95.436,540.267,539.041,0.0
53790.0,STARLINK-4734,PAYLOAD,2023-04-02 19:56:52,15.08855073,0.0001005,53.2179,45.7611,85.3219,274.7888,0.00058261,9e-05,0.0,0 STARLINK-4734,1 53790U 22111T   23092.83116840  .00009000  00000-0  58261-3 0  9992,2 53790  53.2179  45.7611 0001005  85.3219 274.7888 15.08855073 31078,6917.834,95.437,540.395,539.004,0.0
53790.0,STARLINK-4734,PAYLOAD,2023-04-02 21:32:15,15.08857958,0.0001049,53.2189,45.4659,94.0619,266.0493,0.00056931,8.789e-05,0.0,0 STARLINK-4734,1 53790U 22111T   23092.89740693  .00008789  00000-0  56931-3 0  9992,2 53790  53.2189  45.4659 0001049  94.0619 266.0493 15.08857958 31897,6917.825,95.436,540.416,538.965,0.0
53790.0,STARLINK-4734,PAYLOAD,2023-04-03 05:29:10,15.08890967,0.0001173,53.2176,43.9786,84.6395,275.4731,0.0019542,0.00030994,0.0,0 STARLINK-4734,1 53790U 22111T   23093.22859788  .00030994  00000-0  19542-2 0  9995,2 53790  53.2176  43.9786 0001173  84.6395 275.4731 15.08890967 31134,6917.725,95.434,540.401,538.778,0.0
53790.0,STARLINK-4734,PAYLOAD,2023-04-03 07:04:33,15.08895838,0.0001165,53.2177,43.6814,85.0776,275.0349,0.0020049,0.00031813,0.0,0 STARLINK-4734,1 53790U 22111T   23093.29483549  .00031813  00000-0  20049-2 0  9995,2 53790  53.2177  43.6814 0001165  85.0776 275.0349 15.08895838 31956,6917.71,95.434,540.381,538.769,0.0
53790.0,STARLINK-4734,PAYLOAD,2023-04-03 21:22:59,15.08931838,0.0001145,53.2175,41.0044,89.2987,270.8136,0.0019111,0.00030335,0.0,0 STARLINK-4734,1 53790U 22111T   23093.89096595  .00030335  00000-0  19111-2 0  9998,2 53790  53.2175  41.0044 0001145  89.2987 270.8136 15.08931838 32048,6917.6,95.432,540.257,538.673,0.0
53790.0,STARLINK-4734,PAYLOAD,2023-04-04 06:55:21,15.0883747,0.0001209,53.2172,39.2211,116.7522,243.3593,0.0014797,0.00023338,0.0,0 STARLINK-4734,1 53790U 22111T   23094.28844875  .00023338  00000-0  14797-2 0  9994,2 53790  53.2172  39.2211 0001209 116.7522 243.3593 15.08837470 31297,6917.888,95.438,540.589,538.917,0.0
53790.0,STARLINK-4734,PAYLOAD,2023-04-04 08:30:45,15.08841554,0.0001169,53.2173,38.9235,115.3832,244.7281,0.0011853,0.00018627,0.0,0 STARLINK-4734,1 53790U 22111T   23094.35468847  .00018627  00000-0  11853-2 0  9998,2 53790  53.2173  38.9235 0001169 115.3832 244.7281 15.08841554 32113,6917.876,95.437,540.549,538.932,0.0
53790.0,STARLINK-4734,PAYLOAD,2023-04-04 21:13:50,15.08826684,9e-05,53.2179,36.5454,103.3664,256.7428,0.00068599,0.00010643,0.0,0 STARLINK-4734,1 53790U 22111T   23094.88461676  .00010643  00000-0  68599-3 0  9999,2 53790  53.2179  36.5454 0000900 103.3664 256.7428 15.08826684 31389,6917.921,95.438,540.409,539.163,0.0
53790.0,STARLINK-4734,PAYLOAD,2023-04-05 05:10:46,15.08854032,0.0001281,53.2174,35.0583,122.5019,237.6097,0.0019074,0.0003021,0.0,0 STARLINK-4734,1 53790U 22111T   23095.21581410  .00030210  00000-0  19074-2 0  9991,2 53790  53.2174  35.0583 0001281 122.5019 237.6097 15.08854032 31435,6917.837,95.437,540.589,538.816,0.0
53790.0,STARLINK-4734,PAYLOAD,2023-04-06 05:01:33,15.08857433,0.000139,53.2175,30.5978,119.6379,240.4752,0.00094271,0.00014754,0.0,0 STARLINK-4734,1 53790U 22111T   23096.20941431  .00014754  00000-0  94271-3 0  9992,2 53790  53.2175  30.5978 0001390 119.6379 240.4752 15.08857433 31585,6917.827,95.436,540.654,538.731,0.0
53790.0,STARLINK-4734,PAYLOAD,2023-04-06 19:20:02,15.08844208,0.0001374,53.2177,27.9239,92.6236,267.4913,0.0005423,8.354e-05,0.0,0 STARLINK-4734,1 53790U 22111T   23096.80558003  .00008354  00000-0  54230-3 0  9997,2 53790  53.2177  27.9239 0001374  92.6236 267.4913 15.08844208 31675,6917.868,95.437,540.683,538.782,0.0
53790.0,STARLINK-4734,PAYLOAD,2023-04-07 04:52:20,15.08848065,0.0001313,53.2179,26.137,109.721,250.3924,0.000946,0.00014803,0.0,0 STARLINK-4734,1 53790U 22111T   23097.20301941  .00014803  00000-0  94600-3 0  9990,2 53790  53.2179  26.1370 0001313 109.7210 250.3924 15.08848065 32544,6917.856,95.437,540.629,538.812,0.0
53790.0,STARLINK-4734,PAYLOAD,2023-04-07 19:10:49,15.08843321,0.000122,53.2174,23.4622,95.8676,264.2455,0.00087779,0.00013711,0.0,0 STARLINK-4734,1 53790U 22111T   23097.79918209  .00013711  00000-0  87779-3 0  9991,2 53790  53.2174  23.4622 0001220  95.8676 264.2455 15.08843321 31820,6917.87,95.437,540.579,538.891,0.0
53790.0,STARLINK-4734,PAYLOAD,2023-04-08 04:43:07,15.08858582,0.0001061,53.2177,21.6773,93.8158,266.2956,0.0010573,0.00016587,0.0,0 STARLINK-4734,1 53790U 22111T   23098.19661887  .00016587  00000-0  10573-2 0  9994,2 53790  53.2177  21.6773 0001061  93.8158 266.2956 15.08858582 32695,6917.824,95.436,540.423,538.955,0.0
53790.0,STARLINK-4734,PAYLOAD,2023-04-08 19:01:36,15.08849587,0.0001144,53.2181,19.0007,94.3388,265.7734,0.00078672,0.00012258,0.0,0 STARLINK-4734,1 53790U 22111T   23098.79278016  .00012258  00000-0  78672-3 0  9994,2 53790  53.2181  19.0007 0001144  94.3388 265.7734 15.08849587 31977,6917.851,95.437,540.507,538.925,0.0
53790.0,STARLINK-4734,PAYLOAD,2023-04-09 04:33:54,15.08857131,0.0001199,53.2177,17.2166,89.256,270.857,0.00077019,0.00011997,0.0,0 STARLINK-4734,1 53790U 22111T   23099.19021736  .00011997  00000-0  77019-3 0  9997,2 53790  53.2177  17.2166 0001199  89.2560 270.8570 15.08857131 32849,6917.828,95.436,540.522,538.864,0.0
53790.0,STARLINK-4734,PAYLOAD,2023-04-09 18:52:23,15.0884119,0.0001313,53.2166,14.5392,105.0643,255.0494,0.00040549,6.172e-05,0.0,0 STARLINK-4734,1 53790U 22111T   23099.78638045  .00006172  00000-0  40549-3 0  9996,2 53790  53.2166  14.5392 0001313 105.0643 255.0494 15.08841190 32124,6917.877,95.437,540.65,538.833,0.0
53790.0,STARLINK-4734,PAYLOAD,2023-04-10 04:24:41,15.08856417,0.0001208,53.2171,12.7566,102.3657,257.747,0.00092056,0.000144,0.0,0 STARLINK-4734,1 53790U 22111T   23100.18381836  .00014400  00000-0  92056-3 0  9999,2 53790  53.2171  12.7566 0001208 102.3657 257.7470 15.08856417 32188,6917.83,95.437,540.531,538.86,0.0
53790.0,STARLINK-4734,PAYLOAD,2023-04-10 18:43:10,15.08846571,0.0001316,53.2174,10.0804,98.8032,261.3109,0.00079998,0.00012469,0.0,0 STARLINK-4734,1 53790U 22111T   23100.77998114  .00012469  00000-0  79998-3 0  9990,2 53790  53.2174  10.0804 0001316  98.8032 261.3109 15.08846571 33083,6917.86,95.437,540.636,538.815,0.0
